SIRIUS-1                
1 26390U 00035A   15112.36864990 -.00000055  00000-0  00000+0 0  9993
2 26390  59.8457 236.8271 2640674 268.8256 102.6984  1.00282689 54246
SIRIUS-2                
1 26483U 00051A   15111.44247951  .00000069  00000-0  00000+0 0  9998
2 26483  64.3417 116.7541 2675449 270.5331 244.7803  1.00279271 53570
SIRIUS-3                
1 26626U 00077A   15113.58832561  .00000000  00000-0  10000-3 0  9999
2 26626  64.5055 356.6719 2651968 270.1062  59.9227  1.00296536 52633
XM-1 (ROLL)             
1 26761U 01018A   15112.64541106 -.00000047  00000-0  10000-3 0  9995
2 26761   0.1369 260.8972 0004092 319.1299 107.4258  1.00272525 51171
XM-3 (RHYTHM)           
1 28626U 05008A   15111.49833874 -.00000230  00000-0  10000-3 0  9992
2 28626   0.0230 103.3964 0000577 171.6703  28.4650  1.00270219 37200
XM-4 (BLUES)            
1 29520U 06049A   15112.64533461 -.00000047  00000-0  00000+0 0  9990
2 29520   0.0416  71.9818 0000359 183.9857  71.4853  1.00271847 31140
O3B FM5                 
1 39188U 13031A   15113.12461567 -.00000034  00000-0  00000+0 0  9997
2 39188   0.0309 348.7292 0003337  27.6113 343.6691  5.00116333 33341
O3B FM4                 
1 39189U 13031B   15113.52293638 -.00000034  00000-0  00000+0 0  9994
2 39189   0.0513 358.3920 0001914 269.4213  92.1620  5.00116128 33362
O3B FM2                 
1 39190U 13031C   15113.02351814 -.00000034  00000-0  00000+0 0  9992
2 39190   0.0571   5.4154 0002860 251.9944 102.5563  5.00116747 33331
O3B PFM                 
1 39191U 13031D   15113.02474581 -.00000034  00000-0  00000+0 0  9990
2 39191   0.0331   8.0099 0003052   8.4974 343.5014  5.00116935 33343
O3B FM3                 
1 40079U 14038A   15112.13666143 -.00000033  00000-0  00000+0 0  9992
2 40079   0.0427 355.8796 0004933  35.9931 328.1569  5.00116320 14284
O3B FM7                 
1 40080U 14038B   15113.29137166 -.00000034  00000-0  00000+0 0  9991
2 40080   0.0448   1.5147 0003200  34.9579 323.5482  5.00115827 14360
O3B FM6                 
1 40081U 14038C   15113.11368258 -.00000034  00000-0  00000+0 0  9991
2 40081   0.0446 358.9618 0003627  34.1340 326.9202  5.00116409 14355
O3B FM8                 
1 40082U 14038D   15111.15919367 -.00000032  00000-0  00000+0 0  9995
2 40082   0.0471 359.2597 0003292   4.5242 356.2162  5.00115845 14235
O3B FM10                
1 40348U 14083A   15110.98170450 -.00000032  00000-0  00000+0 0  9992
2 40348   0.0358 357.8846 0002324  56.8578 305.2615  5.00116286  6184
O3B FM11                
1 40349U 14083B   15112.40307101 -.00000033  00000-0  00000+0 0  9998
2 40349   0.0363 356.1185 0002254  48.0054 315.8771  5.00116523  6255
O3B FM12                
1 40350U 14083C   15112.27009973 -.00000033  00000-0  00000+0 0  9991
2 40350   0.0347 353.0308 0002482  32.7730 334.2022  5.00116302  6244
O3B FM9                 
1 40351U 14083D   15113.04724254 -.00000034  00000-0  00000+0 0  9995
2 40351   0.0349   1.1861 0002248  42.8118 316.0129  5.00116331  6286
